{"fetched_at":"2026-03-29T16:36:15Z","count":15609,"tles":[{"name":"STARLINK-30777","line1":"1 58233U 23171D   26087.60660931  .00005096  00000+0  19936-3 0  9999","line2":"2 58233  42.9958 178.7370 0000413 187.2817 172.8028 15.26763684132625","category":"Starlink"}]}